[{"OBJECT_NAME":"KUIPER-00018","OBJECT_ID":"2025-088K","EPOCH":"2026-03-09T09:14:13.950816","MEAN_MOTION":14.79966884,"ECCENTRICITY":0.00010275,"INCLINATION":51.9017,"RA_OF_ASC_NODE":101.9157,"ARG_OF_PERICENTER":120.7858,"MEAN_ANOMALY":239.3206,"EPHEMERIS_TYPE":0,"CLASSIFICATION_TYPE":"U","NORAD_CAT_ID":63733,"ELEMENT_SET_NO":999,"REV_AT_EPOCH":4744,"BSTAR":0.001710843,"MEAN_MOTION_DOT":0.00012856,"MEAN_MOTION_DDOT":0},{"OBJECT_NAME":"CZ-6A DEB","OBJECT_ID":"2024-140ACV","EPOCH":"2026-03-09T14:12:17.134272","MEAN_MOTION":14.90958508,"ECCENTRICITY":0.0072596,"INCLINATION":89.2243,"RA_OF_ASC_NODE":297.3941,"ARG_OF_PERICENTER":114.4317,"MEAN_ANOMALY":246.4509,"EPHEMERIS_TYPE":0,"CLASSIFICATION_TYPE":"U","NORAD_CAT_ID":61829,"ELEMENT_SET_NO":999,"REV_AT_EPOCH":7741,"BSTAR":0.0037165,"MEAN_MOTION_DOT":0.00038761,"MEAN_MOTION_DDOT":0}]
